SAUDISAT 1C             
1 27607U 02058C   22317.08573462  .00000954  00000+0  15013-3 0  9997
2 27607  64.5545 206.9839 0081335 266.1773  93.0027 14.76409999 70312
SAUDISAT 2              
1 28371U 04025F   22317.48847586  .00000306  00000+0  82372-4 0  9991
2 28371  98.4004 274.6778 0025771   9.1638 351.0007 14.54648670974953
SAUDISAT 3              
1 31118U 07012B   22317.44031604  .00000352  00000+0  67586-4 0  9996
2 31118  97.9869 261.0012 0016485  82.0830 278.2246 14.69415068834988
PISAT                   
1 41784U 16059B   22317.34297690  .00000771  00000+0  15439-3 0  9999
2 41784  97.8985 354.7807 0032808  60.1073 300.3382 14.64101133327470
FLYING LAPTOP           
1 42831U 17042G   22317.55843436  .00001304  00000+0  13321-3 0  9995
2 42831  97.4039 163.2389 0012464 224.7935 135.2241 14.92113594290326
SALSAT                  
1 46495U 20068K   22317.37737892  .00003288  00000+0  23361-3 0  9993
2 46495  97.7456 258.8831 0017659 128.4805 231.8008 15.05291202116589
